{"type": "FeatureCollection", "features": [ {"type": "Feature", "properties": {"norad_id": 66052, "name": "HRC MONOBLOCK CAMERA", "group": "stations", "lat": -28.98645072234272, "lon": -29.525277347727922, "alt_km": 405.65168207495753, "timestamp": "2025-12-16T03:53:25.836522+00:00", "meta": {"OBJECT_NAME": "HRC MONOBLOCK CAMERA", "OBJECT_ID": "1998-067XR", "EPOCH": "2025-12-15T08:26:23.325504", "MEAN_MOTION": 15.54333507, "ECCENTRICITY": 0.00029894, "INCLINATION": 51.6287, "RA_OF_ASC_NODE": 128.4815, "ARG_OF_PERICENTER": 195.8613, "MEAN_ANOMALY": 164.2285, "EPHEMERIS_TYPE": 0, "CLASSIFICATION_TYPE": "U", "NORAD_CAT_ID": 66052, "ELEMENT_SET_NO": 999, "REV_AT_EPOCH": 924, "BSTAR": 0.00041424245, "MEAN_MOTION_DOT": 0.00027244, "MEAN_MOTION_DDOT": 0}, "tle": {"line1": "1 66052U 98067XR  25349.35165886  .00027244  00000+0  41424-3 0  9990", "line2": "2 66052  51.6287 128.4815 0002989 195.8613 164.2285 15.54333507  9249"}}, "geometry": {"type": "Point", "coordinates": [-29.525277347727922, -28.98645072234272]}}, {"type": "Feature", "properties": {"norad_id": 66174, "name": "HTV-X1", "group": "stations", "lat": 38.88384336941902, "lon": 165.24158570766693, "alt_km": 414.6336516146266, "timestamp": "2025-12-16T03:53:25.836532+00:00", "meta": {"OBJECT_NAME": "HTV-X1", "OBJECT_ID": "2025-241A", "EPOCH": "2025-12-15T05:59:35.690496", "MEAN_MOTION": 15.49601155, "ECCENTRICITY": 0.00031934, "INCLINATION": 51.6306, "RA_OF_ASC_NODE": 130.0501, "ARG_OF_PERICENTER": 251.9008, "MEAN_ANOMALY": 108.1633, "EPHEMERIS_TYPE": 0, "CLASSIFICATION_TYPE": "U", "NORAD_CAT_ID": 66174, "ELEMENT_SET_NO": 999, "REV_AT_EPOCH": 51, "BSTAR": 0.00013467464, "MEAN_MOTION_DOT": 7.132e-05, "MEAN_MOTION_DDOT": 0}, "tle": {"line1": "1 66174U 25241A   25349.24971864  .00007132  00000+0  13467-3 0  9998", "line2": "2 66174  51.6306 130.0501 0003193 251.9008 108.1633 15.49601155   513"}}, "geometry": {"type": "Point", "coordinates": [165.24158570766693, 38.88384336941902]}}, {"type": "Feature", "properties": {"norad_id": 66515, "name": "SZ-21 MODULE", "group": "stations", "lat": -37.315106629385156, "lon": -125.20010923839736, "alt_km": 379.4464390093608, "timestamp": "2025-12-16T03:53:25.836545+00:00", "meta": {"OBJECT_NAME": "SZ-21 MODULE", "OBJECT_ID": "2025-246C", "EPOCH": "2025-12-15T05:22:01.876512", "MEAN_MOTION": 15.62622565, "ECCENTRICITY": 0.00062103, "INCLINATION": 41.4777, "RA_OF_ASC_NODE": 0.893, "ARG_OF_PERICENTER": 273.7015, "MEAN_ANOMALY": 86.3114, "EPHEMERIS_TYPE": 0, "CLASSIFICATION_TYPE": "U", "NORAD_CAT_ID": 66515, "ELEMENT_SET_NO": 999, "REV_AT_EPOCH": 483, "BSTAR": 0.00023307577, "MEAN_MOTION_DOT": 0.00021182, "MEAN_MOTION_DDOT": 0}, "tle": {"line1": "1 66515U 25246C   25349.22363283  .00021182  00000+0  23308-3 0  9996", "line2": "2 66515  41.4777   0.8930 0006210 273.7015  86.3114 15.62622565  4837"}}, "geometry": {"type": "Point", "coordinates": [-125.20010923839736, -37.315106629385156]}}, {"type": "Feature", "properties": {"norad_id": 66645, "name": "SHENZHOU-22", "group": "stations", "lat": -36.22157940622478, "lon": -60.1117100093007, "alt_km": 395.3438377936818, "timestamp": "2025-12-16T03:53:25.836555+00:00", "meta": {"OBJECT_NAME": "SHENZHOU-22", "OBJECT_ID": "2025-272A", "EPOCH": "2025-12-15T08:10:40.084608", "MEAN_MOTION": 15.592964, "ECCENTRICITY": 0.0007961, "INCLINATION": 41.4685, "RA_OF_ASC_NODE": 0.9167, "ARG_OF_PERICENTER": 52.8673, "MEAN_ANOMALY": 307.2892, "EPHEMERIS_TYPE": 0, "CLASSIFICATION_TYPE": "U", "NORAD_CAT_ID": 66645, "ELEMENT_SET_NO": 999, "REV_AT_EPOCH": 26357, "BSTAR": 0.00021537809, "MEAN_MOTION_DOT": 0.00017163, "MEAN_MOTION_DDOT": 0}, "tle": {"line1": "1 66645U 25272A   25349.34074172  .00017163  00000+0  21538-3 0  9995", "line2": "2 66645  41.4685   0.9167 0007961  52.8673 307.2892 15.59296400263579"}}, "geometry": {"type": "Point", "coordinates": [-60.1117100093007, -36.22157940622478]}}, {"type": "Feature", "properties": {"norad_id": 66664, "name": "SOYUZ-MS 28", "group": "stations", "lat": 38.88384465596945, "lon": 165.24158789254787, "alt_km": 414.63365144311956, "timestamp": "2025-12-16T03:53:25.836565+00:00", "meta": {"OBJECT_NAME": "SOYUZ-MS 28", "OBJECT_ID": "2025-275A", "EPOCH": "2025-12-15T05:59:35.690496", "MEAN_MOTION": 15.49601155, "ECCENTRICITY": 0.00031934, "INCLINATION": 51.6306, "RA_OF_ASC_NODE": 130.0501, "ARG_OF_PERICENTER": 251.9008, "MEAN_ANOMALY": 108.1633, "EPHEMERIS_TYPE": 0, "CLASSIFICATION_TYPE": "U", "NORAD_CAT_ID": 66664, "ELEMENT_SET_NO": 999, "REV_AT_EPOCH": 128, "BSTAR": 0.00013467464, "MEAN_MOTION_DOT": 7.132e-05, "MEAN_MOTION_DDOT": 0}, "tle": {"line1": "1 66664U 25275A   25349.24971864  .00007132  00000+0  13467-3 0  9999", "line2": "2 66664  51.6306 130.0501 0003193 251.9008 108.1633 15.49601155  1282"}}, "geometry": {"type": "Point", "coordinates": [165.24158789254787, 38.88384465596945]}}, {"type": "Feature", "properties": {"norad_id": 66906, "name": "1998-067XS", "group": "stations", "lat": 51.19860740308481, "lon": -134.74394911169622, "alt_km": 408.68033599801856, "timestamp": "2025-12-16T03:53:25.836575+00:00", "meta": {"OBJECT_NAME": "1998-067XS", "OBJECT_ID": "1998-067XS", "EPOCH": "2025-12-15T02:43:53.639328", "MEAN_MOTION": 15.50707714, "ECCENTRICITY": 0.00033588, "INCLINATION": 51.6305, "RA_OF_ASC_NODE": 130.643, "ARG_OF_PERICENTER": 213.849, "MEAN_ANOMALY": 146.2285, "EPHEMERIS_TYPE": 0, "CLASSIFICATION_TYPE": "U", "NORAD_CAT_ID": 66906, "ELEMENT_SET_NO": 999, "REV_AT_EPOCH": 198, "BSTAR": 0.00033919377, "MEAN_MOTION_DOT": 0.00019441, "MEAN_MOTION_DDOT": 0}, "tle": {"line1": "1 66906U 98067XS  25349.11381527  .00019441  00000+0  33919-3 0  9994", "line2": "2 66906  51.6305 130.6430 0003358 213.8490 146.2285 15.50707714  1985"}}, "geometry": {"type": "Point", "coordinates": [-134.74394911169622, 51.19860740308481]}}, {"type": "Feature", "properties": {"norad_id": 66907, "name": "1998-067XT", "group": "stations", "lat": 40.57419614338645, "lon": -97.34099194073691, "alt_km": 407.20192101109205, "timestamp": "2025-12-16T03:53:25.836585+00:00", "meta": {"OBJECT_NAME": "1998-067XT", "OBJECT_ID": "1998-067XT", "EPOCH": "2025-12-15T05:43:16.597920", "MEAN_MOTION": 15.51783963, "ECCENTRICITY": 0.00040993, "INCLINATION": 51.6297, "RA_OF_ASC_NODE": 129.9756, "ARG_OF_PERICENTER": 241.5907, "MEAN_ANOMALY": 118.467, "EPHEMERIS_TYPE": 0, "CLASSIFICATION_TYPE": "U", "NORAD_CAT_ID": 66907, "ELEMENT_SET_NO": 999, "REV_AT_EPOCH": 200, "BSTAR": 0.00079982279, "MEAN_MOTION_DOT": 0.00048484, "MEAN_MOTION_DDOT": 0}, "tle": {"line1": "1 66907U 98067XT  25349.23838655  .00048484  00000+0  79982-3 0  9996", "line2": "2 66907  51.6297 129.9756 0004099 241.5907 118.4670 15.51783963  2006"}}, "geometry": {"type": "Point", "coordinates": [-97.34099194073691, 40.57419614338645]}}, {"type": "Feature", "properties": {"norad_id": 66908, "name": "1998-067XU", "group": "stations", "lat": 38.840961544546786, "lon": -94.26417896196243, "alt_km": 407.0776455555224, "timestamp": "2025-12-16T03:53:25.836596+00:00", "meta": {"OBJECT_NAME": "1998-067XU", "OBJECT_ID": "1998-067XU", "EPOCH": "2025-12-15T02:37:08.426784", "MEAN_MOTION": 15.51862591, "ECCENTRICITY": 0.00042185, "INCLINATION": 51.6293, "RA_OF_ASC_NODE": 130.6123, "ARG_OF_PERICENTER": 240.3757, "MEAN_ANOMALY": 119.6813, "EPHEMERIS_TYPE": 0, "CLASSIFICATION_TYPE": "U", "NORAD_CAT_ID": 66908, "ELEMENT_SET_NO": 999, "REV_AT_EPOCH": 198, "BSTAR": 0.00082604654, "MEAN_MOTION_DOT": 0.00050243, "MEAN_MOTION_DDOT": 0}, "tle": {"line1": "1 66908U 98067XU  25349.10912531  .00050243  00000+0  82605-3 0  9991", "line2": "2 66908  51.6293 130.6123 0004218 240.3757 119.6813 15.51862591  1986"}}, "geometry": {"type": "Point", "coordinates": [-94.26417896196243, 38.840961544546786]}}, {"type": "Feature", "properties": {"norad_id": 66909, "name": "SILVERSAT", "group": "stations", "lat": 36.715177256120555, "lon": -90.852041135654, "alt_km": 406.93224234662375, "timestamp": "2025-12-16T03:53:25.836620+00:00", "meta": {"OBJECT_NAME": "SILVERSAT", "OBJECT_ID": "1998-067XV", "EPOCH": "2025-12-14T21:58:11.659008", "MEAN_MOTION": 15.51959159, "ECCENTRICITY": 0.00041685, "INCLINATION": 51.6297, "RA_OF_ASC_NODE": 131.568, "ARG_OF_PERICENTER": 239.8452, "MEAN_ANOMALY": 120.2125, "EPHEMERIS_TYPE": 0, "CLASSIFICATION_TYPE": "U", "NORAD_CAT_ID": 66909, "ELEMENT_SET_NO": 999, "REV_AT_EPOCH": 195, "BSTAR": 0.00078463431, "MEAN_MOTION_DOT": 0.00047853, "MEAN_MOTION_DDOT": 0}, "tle": {"line1": "1 66909U 98067XV  25348.91541272  .00047853  00000+0  78463-3 0  9990", "line2": "2 66909  51.6297 131.5680 0004168 239.8452 120.2125 15.51959159  1956"}}, "geometry": {"type": "Point", "coordinates": [-90.852041135654, 36.715177256120555]}}, {"type": "Feature", "properties": {"norad_id": 66910, "name": "1998-067XW", "group": "stations", "lat": 30.346924372610417, "lon": -82.2869720456555, "alt_km": 406.2446649040685, "timestamp": "2025-12-16T03:53:25.836636+00:00", "meta": {"OBJECT_NAME": "1998-067XW", "OBJECT_ID": "1998-067XW", "EPOCH": "2025-12-15T02:33:59.321376", "MEAN_MOTION": 15.52065863, "ECCENTRICITY": 0.00048103, "INCLINATION": 51.6293, "RA_OF_ASC_NODE": 130.5977, "ARG_OF_PERICENTER": 220.6145, "MEAN_ANOMALY": 139.4486, "EPHEMERIS_TYPE": 0, "CLASSIFICATION_TYPE": "U", "NORAD_CAT_ID": 66910, "ELEMENT_SET_NO": 999, "REV_AT_EPOCH": 198, "BSTAR": 0.00077673091, "MEAN_MOTION_DOT": 0.00047552, "MEAN_MOTION_DDOT": 0}, "tle": {"line1": "1 66910U 98067XW  25349.10693659  .00047552  00000+0  77673-3 0  9999", "line2": "2 66910  51.6293 130.5977 0004810 220.6145 139.4486 15.52065863  1989"}}, "geometry": {"type": "Point", "coordinates": [-82.2869720456555, 30.346924372610417]}}]}